STARLINK-36889          
1 68006U 26039W   26080.50001157 -.00174549  00000+0 -30271-2 0  9991
2 68006  43.0000 343.5791 0001185 252.2294 124.8731 15.50663530  4770
STARLINK-36592          
1 68007U 26039X   26080.50001157 -.01843654  00000+0 -33474-1 0  9990
2 68007  42.9998 343.2785 0001503 265.5844 233.1002 15.52231465  4772
STARLINK-36911          
1 68008U 26039Y   26080.50001157  .00061026  00000+0  10406-2 0  9994
2 68008  42.9996 343.3653 0001396 274.2929 189.2461 15.50508660  4779
STARLINK-36956          
1 68009U 26039Z   26080.50001157 -.00081415  00000+0 -13959-2 0  9997
2 68009  42.9999 343.4306 0001975 256.4746 180.1667 15.50586712  4773
STARLINK-36953          
1 68010U 26039AA  26080.50001157 -.01918022  00000+0 -29297-1 0  9994
2 68010  42.9998 342.9554 0001589 249.8718  18.5196 15.57029775  4778
STARLINK-36991          
1 68011U 26039AB  26080.50001157 -.00248903  00000+0 -43537-2 0  9992
2 68011  43.0000 344.1080 0002181 271.1844 251.1709 15.50699719  4779
STARLINK-36936          
1 68012U 26039AC  26080.50001157 -.00120420  00000+0 -20758-2 0  9996
2 68012  43.0000 343.3911 0001669 264.8075 187.2571 15.50614656  4772
STARLINK-36967          
1 68013U 26039AD  26080.50001157 -.00199967  00000+0 -34793-2 0  9993
2 68013  43.0002 344.0346 0001622 260.1171 292.1237 15.50667651  4778
STARLINK-36985          
1 68014U 26039AE  26080.50001157 -.01920735  00000+0 -28804-1 0  9995
2 68014  42.9996 342.9078 0001703 253.3773  33.9900 15.57519020  4771
STARLINK-36335          
1 68015U 26040A   26080.50001157  .00112036  00000+0  74547-3 0  9999
2 68015  97.2840  29.5232 0001789 121.5316 258.1686 15.75087292  4274
STARLINK-36923          
1 68016U 26040B   26080.50001157 -.00170930  00000+0 -11646-2 0  9999
2 68016  97.2854  29.5273 0001595 104.6416 281.0631 15.75258304  4328
STARLINK-36568          
1 68017U 26040C   26080.50001157 -.00223444  00000+0 -15321-2 0  9993
2 68017  97.2853  29.5283 0001307  89.5868 300.1221 15.75257680  4326
